{"fetched_at":"2026-07-14T06:34:23.487Z","source":"https://celestrak.org/NORAD/elements/gp.php?GROUP=planet&FORMAT=JSON","constellation":"superdove","records":[{"OBJECT_NAME":"FLOCK 4G-33","OBJECT_ID":"2025-009CE","EPOCH":"2026-07-13T17:54:25.081632","CLASSIFICATION_TYPE":"U","MEAN_MOTION":15.25788605,"ECCENTRICITY":0.0004518,"INCLINATION":97.3946,"RA_OF_ASC_NODE":274.3161,"ARG_OF_PERICENTER":220.0659,"MEAN_ANOMALY":140.0247,"EPHEMERIS_TYPE":0,"NORAD_CAT_ID":62685,"ELEMENT_SET_NO":999,"REV_AT_EPOCH":8285,"BSTAR":0.0001387,"MEAN_MOTION_DOT":0.00003471,"MEAN_MOTION_DDOT":0},{"OBJECT_NAME":"FLOCK 4H-1","OBJECT_ID":"2025-276AQ","EPOCH":"2026-07-13T18:20:33.220032","CLASSIFICATION_TYPE":"U","MEAN_MOTION":15.20841028,"ECCENTRICITY":0.0001887,"INCLINATION":97.4172,"RA_OF_ASC_NODE":268.0332,"ARG_OF_PERICENTER":176.9937,"MEAN_ANOMALY":183.1311,"EPHEMERIS_TYPE":0,"NORAD_CAT_ID":66704,"ELEMENT_SET_NO":999,"REV_AT_EPOCH":3447,"BSTAR":0.00017709,"MEAN_MOTION_DOT":0.0000384,"MEAN_MOTION_DDOT":0},{"OBJECT_NAME":"FLOCK 4H-2","OBJECT_ID":"2025-276AR","EPOCH":"2026-07-13T16:08:19.017312","CLASSIFICATION_TYPE":"U","MEAN_MOTION":15.21111452,"ECCENTRICITY":0.0001371,"INCLINATION":97.4171,"RA_OF_ASC_NODE":267.9904,"ARG_OF_PERICENTER":157.1411,"MEAN_ANOMALY":202.9886,"EPHEMERIS_TYPE":0,"NORAD_CAT_ID":66705,"ELEMENT_SET_NO":999,"REV_AT_EPOCH":3446,"BSTAR":0.00018083,"MEAN_MOTION_DOT":0.00003954,"MEAN_MOTION_DDOT":0},{"OBJECT_NAME":"FLOCK 4H-3","OBJECT_ID":"2025-276AS","EPOCH":"2026-07-13T19:02:15.489312","CLASSIFICATION_TYPE":"U","MEAN_MOTION":15.20233126,"ECCENTRICITY":0.0002427,"INCLINATION":97.424,"RA_OF_ASC_NODE":268.0347,"ARG_OF_PERICENTER":256.9695,"MEAN_ANOMALY":103.1269,"EPHEMERIS_TYPE":0,"NORAD_CAT_ID":66706,"ELEMENT_SET_NO":999,"REV_AT_EPOCH":3446,"BSTAR":0.00016911,"MEAN_MOTION_DOT":0.00003599,"MEAN_MOTION_DDOT":0},{"OBJECT_NAME":"FLOCK 4H-4","OBJECT_ID":"2025-276AT","EPOCH":"2026-07-13T18:19:07.676256","CLASSIFICATION_TYPE":"U","MEAN_MOTION":15.20023884,"ECCENTRICITY":0.0003052,"INCLINATION":97.4222,"RA_OF_ASC_NODE":267.8731,"ARG_OF_PERICENTER":262.5095,"MEAN_ANOMALY":97.5793,"EPHEMERIS_TYPE":0,"NORAD_CAT_ID":66707,"ELEMENT_SET_NO":999,"REV_AT_EPOCH":3445,"BSTAR":0.00018611,"MEAN_MOTION_DOT":0.00003943,"MEAN_MOTION_DDOT":0},{"OBJECT_NAME":"FLOCK 4H-5","OBJECT_ID":"2025-276AU","EPOCH":"2026-07-13T18:09:29.031264","CLASSIFICATION_TYPE":"U","MEAN_MOTION":15.2089211,"ECCENTRICITY":0.0001264,"INCLINATION":97.4174,"RA_OF_ASC_NODE":268.0464,"ARG_OF_PERICENTER":135.0783,"MEAN_ANOMALY":225.0555,"EPHEMERIS_TYPE":0,"NORAD_CAT_ID":66708,"ELEMENT_SET_NO":999,"REV_AT_EPOCH":3447,"BSTAR":0.00016979,"MEAN_MOTION_DOT":0.00003684,"MEAN_MOTION_DDOT":0},{"OBJECT_NAME":"FLOCK 4H-6","OBJECT_ID":"2025-276AV","EPOCH":"2026-07-13T17:40:30.792000","CLASSIFICATION_TYPE":"U","MEAN_MOTION":15.20593295,"ECCENTRICITY":0.0002321,"INCLINATION":97.4224,"RA_OF_ASC_NODE":268.0696,"ARG_OF_PERICENTER":210.0948,"MEAN_ANOMALY":150.0155,"EPHEMERIS_TYPE":0,"NORAD_CAT_ID":66709,"ELEMENT_SET_NO":999,"REV_AT_EPOCH":3446,"BSTAR":0.00017352,"MEAN_MOTION_DOT":0.00003733,"MEAN_MOTION_DDOT":0},{"OBJECT_NAME":"FLOCK 4H-7","OBJECT_ID":"2025-276AW","EPOCH":"2026-07-13T17:13:58.573920","CLASSIFICATION_TYPE":"U","MEAN_MOTION":15.20367918,"ECCENTRICITY":0.0000756,"INCLINATION":97.4184,"RA_OF_ASC_NODE":267.8102,"ARG_OF_PERICENTER":316.7235,"MEAN_ANOMALY":43.3941,"EPHEMERIS_TYPE":0,"NORAD_CAT_ID":66710,"ELEMENT_SET_NO":999,"REV_AT_EPOCH":3445,"BSTAR":0.00017249,"MEAN_MOTION_DOT":0.00003686,"MEAN_MOTION_DDOT":0},{"OBJECT_NAME":"FLOCK 4H-8","OBJECT_ID":"2025-276AX","EPOCH":"2026-07-13T18:35:46.842144","CLASSIFICATION_TYPE":"U","MEAN_MOTION":15.20476057,"ECCENTRICITY":0.0001864,"INCLINATION":97.4223,"RA_OF_ASC_NODE":268.015,"ARG_OF_PERICENTER":280.1397,"MEAN_ANOMALY":79.9628,"EPHEMERIS_TYPE":0,"NORAD_CAT_ID":66711,"ELEMENT_SET_NO":999,"REV_AT_EPOCH":3446,"BSTAR":0.00017655,"MEAN_MOTION_DOT":0.00003787,"MEAN_MOTION_DDOT":0},{"OBJECT_NAME":"FLOCK 4H-9","OBJECT_ID":"2025-276AY","EPOCH":"2026-07-13T18:56:03.851808","CLASSIFICATION_TYPE":"U","MEAN_MOTION":15.20775872,"ECCENTRICITY":0.0002314,"INCLINATION":97.4212,"RA_OF_ASC_NODE":268.1228,"ARG_OF_PERICENTER":219.9553,"MEAN_ANOMALY":140.1513,"EPHEMERIS_TYPE":0,"NORAD_CAT_ID":66712,"ELEMENT_SET_NO":999,"REV_AT_EPOCH":3447,"BSTAR":0.00017809,"MEAN_MOTION_DOT":0.00003854,"MEAN_MOTION_DDOT":0},{"OBJECT_NAME":"FLOCK 4H-10","OBJECT_ID":"2025-276AZ","EPOCH":"2026-07-13T17:56:22.169184","CLASSIFICATION_TYPE":"U","MEAN_MOTION":15.20151554,"ECCENTRICITY":0.0002897,"INCLINATION":97.4189,"RA_OF_ASC_NODE":267.7934,"ARG_OF_PERICENTER":262.9945,"MEAN_ANOMALY":97.0961,"EPHEMERIS_TYPE":0,"NORAD_CAT_ID":66713,"ELEMENT_SET_NO":999,"REV_AT_EPOCH":3445,"BSTAR":0.0001974,"MEAN_MOTION_DOT":0.00004202,"MEAN_MOTION_DDOT":0},{"OBJECT_NAME":"FLOCK 4H-11","OBJECT_ID":"2025-276BA","EPOCH":"2026-07-13T18:36:48.460032","CLASSIFICATION_TYPE":"U","MEAN_MOTION":15.23304555,"ECCENTRICITY":0.0001366,"INCLINATION":97.4196,"RA_OF_ASC_NODE":268.4074,"ARG_OF_PERICENTER":254.127,"MEAN_ANOMALY":105.9816,"EPHEMERIS_TYPE":0,"NORAD_CAT_ID":66714,"ELEMENT_SET_NO":999,"REV_AT_EPOCH":3449,"BSTAR":0.00033139,"MEAN_MOTION_DOT":0.00007795,"MEAN_MOTION_DDOT":0},{"OBJECT_NAME":"FLOCK 4H-12","OBJECT_ID":"2025-276BB","EPOCH":"2026-07-13T17:02:42.295200","CLASSIFICATION_TYPE":"U","MEAN_MOTION":15.20803546,"ECCENTRICITY":0.0001703,"INCLINATION":97.4188,"RA_OF_ASC_NODE":267.9819,"ARG_OF_PERICENTER":185.0858,"MEAN_ANOMALY":175.0361,"EPHEMERIS_TYPE":0,"NORAD_CAT_ID":66715,"ELEMENT_SET_NO":999,"REV_AT_EPOCH":3477,"BSTAR":0.00018263,"MEAN_MOTION_DOT":0.00003958,"MEAN_MOTION_DDOT":0},{"OBJECT_NAME":"FLOCK 4H-13","OBJECT_ID":"2025-276BC","EPOCH":"2026-07-13T17:55:15.970368","CLASSIFICATION_TYPE":"U","MEAN_MOTION":15.20904828,"ECCENTRICITY":0.0001836,"INCLINATION":97.4218,"RA_OF_ASC_NODE":268.1905,"ARG_OF_PERICENTER":143.9058,"MEAN_ANOMALY":216.2302,"EPHEMERIS_TYPE":0,"NORAD_CAT_ID":66716,"ELEMENT_SET_NO":999,"REV_AT_EPOCH":3447,"BSTAR":0.00019872,"MEAN_MOTION_DOT":0.00004325,"MEAN_MOTION_DDOT":0},{"OBJECT_NAME":"FLOCK 4H-14","OBJECT_ID":"2025-276BD","EPOCH":"2026-07-13T18:33:38.894976","CLASSIFICATION_TYPE":"U","MEAN_MOTION":15.21352941,"ECCENTRICITY":0.0001722,"INCLINATION":97.4203,"RA_OF_ASC_NODE":268.2627,"ARG_OF_PERICENTER":141.9371,"MEAN_ANOMALY":218.1986,"EPHEMERIS_TYPE":0,"NORAD_CAT_ID":66717,"ELEMENT_SET_NO":999,"REV_AT_EPOCH":3373,"BSTAR":0.00016901,"MEAN_MOTION_DOT":0.00003717,"MEAN_MOTION_DDOT":0},{"OBJECT_NAME":"FLOCK 4H-15","OBJECT_ID":"2025-276BE","EPOCH":"2026-07-13T17:10:05.555712","CLASSIFICATION_TYPE":"U","MEAN_MOTION":15.19871109,"ECCENTRICITY":0.0002672,"INCLINATION":97.4219,"RA_OF_ASC_NODE":267.7672,"ARG_OF_PERICENTER":284.1131,"MEAN_ANOMALY":75.9807,"EPHEMERIS_TYPE":0,"NORAD_CAT_ID":66718,"ELEMENT_SET_NO":999,"REV_AT_EPOCH":3444,"BSTAR":0.00017134,"MEAN_MOTION_DOT":0.00003608,"MEAN_MOTION_DDOT":0}]}
