FLOCK 4G-33             
1 62685U 25009CE  26194.74612363  .00003471  00000+0  13870-3 0  9993
2 62685  97.3946 274.3161 0004518 220.0659 140.0247 15.25788605 82851
FLOCK 4H-1              
1 66704U 25276AQ  26194.76427338  .00003840  00000+0  17709-3 0  9998
2 66704  97.4172 268.0332 0001887 176.9937 183.1311 15.20841028 34472
FLOCK 4H-2              
1 66705U 25276AR  26194.67244233  .00003954  00000+0  18083-3 0  9992
2 66705  97.4171 267.9904 0001371 157.1411 202.9886 15.21111452 34469
FLOCK 4H-3              
1 66706U 25276AS  26194.79323483  .00003599  00000+0  16911-3 0  9994
2 66706  97.4240 268.0347 0002427 256.9695 103.1269 15.20233126 34464
FLOCK 4H-4              
1 66707U 25276AT  26194.76328329  .00003943  00000+0  18611-3 0  9998
2 66707  97.4222 267.8731 0003052 262.5095  97.5793 15.20023884 34456
FLOCK 4H-5              
1 66708U 25276AU  26194.75658601  .00003684  00000+0  16979-3 0  9994
2 66708  97.4174 268.0464 0001264 135.0783 225.0555 15.20892110 34472
FLOCK 4H-6              
1 66709U 25276AV  26194.73646750  .00003733  00000+0  17352-3 0  9996
2 66709  97.4224 268.0696 0002321 210.0948 150.0155 15.20593295 34462
FLOCK 4H-7              
1 66710U 25276AW  26194.71803905  .00003686  00000+0  17249-3 0  9995
2 66710  97.4184 267.8102 0000756 316.7235  43.3941 15.20367918 34458
FLOCK 4H-8              
1 66711U 25276AX  26194.77484771  .00003787  00000+0  17655-3 0  9991
2 66711  97.4223 268.0150 0001864 280.1397  79.9628 15.20476057 34466
FLOCK 4H-9              
1 66712U 25276AY  26194.78893347  .00003854  00000+0  17809-3 0  9992
2 66712  97.4212 268.1228 0002314 219.9553 140.1513 15.20775872 34479
FLOCK 4H-10             
1 66713U 25276AZ  26194.74747881  .00004202  00000+0  19740-3 0  9994
2 66713  97.4189 267.7934 0002897 262.9945  97.0961 15.20151554 34451
FLOCK 4H-11             
1 66714U 25276BA  26194.77556088  .00007795  00000+0  33139-3 0  9993
2 66714  97.4196 268.4074 0001366 254.1270 105.9816 15.23304555 34493
FLOCK 4H-12             
1 66715U 25276BB  26194.71021175  .00003958  00000+0  18263-3 0  9990
2 66715  97.4188 267.9819 0001703 185.0858 175.0361 15.20803546 34770
FLOCK 4H-13             
1 66716U 25276BC  26194.74671262  .00004325  00000+0  19872-3 0  9998
2 66716  97.4218 268.1905 0001836 143.9058 216.2302 15.20904828 34471
FLOCK 4H-14             
1 66717U 25276BD  26194.77336684  .00003717  00000+0  16901-3 0  9992
2 66717  97.4203 268.2627 0001722 141.9371 218.1986 15.21352941 33739
FLOCK 4H-15             
1 66718U 25276BE  26194.71534208  .00003608  00000+0  17134-3 0  9997
2 66718  97.4219 267.7672 0002672 284.1131  75.9807 15.19871109 34449
